[
    {
        "Altitude(m)": 622205.8918957418,
        "Argument of Periapsis(deg)": 0.0,
        "Eccentricity": 0.0,
        "Inclination(deg)": 60.0,
        "Latitude(deg)": -52.16250277279215,
        "Longitude(deg)": -132.29969107408886,
        "Mean Anomaly(deg)": 245.4545,
        "RAAN(deg)": 100.0,
        "Satellite Name": "Test1 455",
        "Satellite Number": 455,
        "Semi-Major Axis(m)": 6980739.136638005,
        "Time(s)": 0
    },
    {
        "Altitude(m)": 622344.798684241,
        "Argument of Periapsis(deg)": 0.00010418945913296404,
        "Eccentricity": 0.0,
        "Inclination(deg)": 60.0,
        "Latitude(deg)": -52.52008326583984,
        "Longitude(deg)": -131.51847861903067,
        "Mean Anomaly(deg)": 246.07460614546184,
        "RAAN(deg)": 99.99957995086025,
        "Satellite Name": "Test1 455",
        "Satellite Number": 455,
        "Semi-Major Axis(m)": 6980739.136638005,
        "Time(s)": 10
    }
]